NORAD_CAT_ID,OBJECT_NAME,OBJECT_TYPE,EPOCH,MEAN_MOTION,ECCENTRICITY,INCLINATION,RA_OF_ASC_NODE,ARG_OF_PERICENTER,MEAN_ANOMALY,BSTAR,MEAN_MOTION_DOT,MEAN_MOTION_DDOT,TLE_LINE0,TLE_LINE1,TLE_LINE2,SEMIMAJOR_AXIS,PERIOD,APOGEE,PERIGEE,DECAYED
52383.0,STARLINK-3811,PAYLOAD,2024-01-03 13:08:39,15.08834914,0.0001357,53.2168,153.1663,88.7162,271.3985,-1.0269e-05,-4.51e-06,0.0,0 STARLINK-3811,1 52383U 22045BE  24003.54767796 -.00000451  00000-0 -10269-4 0  9998,2 52383  53.2168 153.1663 0001357  88.7162 271.3985 15.08834914 95878,6917.896,95.438,540.7,538.822,0.0
52383.0,STARLINK-3811,PAYLOAD,2024-01-03 16:19:25,15.08837744,0.0001408,53.217,152.5709,93.7419,266.3734,1.4776e-05,-5.3e-07,0.0,0 STARLINK-3811,1 52383U 22045BE  24003.68015573 -.00000053  00000-0  14776-4 0  9996,2 52383  53.2170 152.5709 0001408  93.7419 266.3734 15.08837744 95895,6917.887,95.438,540.726,538.778,0.0
52383.0,STARLINK-3811,PAYLOAD,2024-01-04 14:34:48,15.0884461,0.0001318,53.2167,148.4096,85.7298,274.3845,0.00022911,3.361e-05,0.0,0 STARLINK-3811,1 52383U 22045BE  24004.60750666  .00003361  00000-0  22911-3 0  9991,2 52383  53.2167 148.4096 0001318  85.7298 274.3845 15.08844610 96039,6917.866,95.437,540.643,538.82,0.0
52383.0,STARLINK-3811,PAYLOAD,2024-01-04 16:10:11,15.08846775,0.000133,53.2168,148.1121,86.2719,273.8425,0.00024764,3.656e-05,0.0,0 STARLINK-3811,1 52383U 22045BE  24004.67374543  .00003656  00000-0  24764-3 0  9999,2 52383  53.2168 148.1121 0001330  86.2719 273.8425 15.08846775 96047,6917.86,95.437,540.645,538.805,0.0
52383.0,STARLINK-3811,PAYLOAD,2024-01-05 12:50:13,15.0884142,0.0001366,53.2167,144.2446,111.1426,248.9713,1.8793e-05,1.1e-07,0.0,0 STARLINK-3811,1 52383U 22045BE  24005.53487510  .00000011  00000-0  18793-4 0  9992,2 52383  53.2167 144.2446 0001366 111.1426 248.9713 15.08841420 96174,6917.876,95.437,540.686,538.796,0.0
52383.0,STARLINK-3811,PAYLOAD,2024-01-05 14:25:36,15.08841794,0.0001421,53.217,143.9468,116.3612,243.7526,1.8412e-05,5e-08,0.0,0 STARLINK-3811,1 52383U 22045BE  24005.60111440  .00000005  00000-0  18412-4 0  9997,2 52383  53.2170 143.9468 0001421 116.3612 243.7526 15.08841794 96184,6917.875,95.437,540.723,538.757,0.0
52383.0,STARLINK-3811,PAYLOAD,2024-01-05 16:00:59,15.08836446,0.0001609,53.2178,143.6539,112.1241,247.9922,3.0609e-06,-2.39e-06,0.0,0 STARLINK-3811,1 52383U 22045BE  24005.66735841 -.00000239  00000-0  30609-5 0  9993,2 52383  53.2178 143.6539 0001609 112.1241 247.9922 15.08836446 96193,6917.891,95.438,540.869,538.643,0.0
52383.0,STARLINK-3811,PAYLOAD,2024-01-06 12:40:59,15.08852331,0.0001379,53.2176,139.7873,103.7487,256.3659,-9.2839e-05,-1.766e-05,0.0,0 STARLINK-3811,1 52383U 22045BE  24006.52847082 -.00001766  00000-0 -92839-4 0  9999,2 52383  53.2176 139.7873 0001379 103.7487 256.3659 15.08852331 96327,6917.843,95.437,540.662,538.754,0.0
52383.0,STARLINK-3811,PAYLOAD,2024-01-06 19:02:31,15.08864251,0.0001479,53.2172,138.5965,103.0072,257.1086,-0.00020022,-3.475e-05,0.0,0 STARLINK-3811,1 52383U 22045BE  24006.79342372 -.00003475  00000-0 -20022-3 0  9993,2 52383  53.2172 138.5965 0001479 103.0072 257.1086 15.08864251 96367,6917.806,95.436,540.694,538.648,0.0
52383.0,STARLINK-3811,PAYLOAD,2024-01-07 09:21:01,15.08834562,0.0001656,53.2176,135.9183,113.3643,246.7524,6.0829e-05,6.8e-06,0.0,0 STARLINK-3811,1 52383U 22045BE  24007.38959610  .00000680  00000-0  60829-4 0  9991,2 52383  53.2176 135.9183 0001656 113.3643 246.7524 15.08834562 96452,6917.897,95.438,540.908,538.616,0.0
52383.0,STARLINK-3811,PAYLOAD,2024-01-07 14:07:10,15.0883581,0.000163,53.2175,135.0256,111.5184,248.5982,6.1549e-05,6.92e-06,0.0,0 STARLINK-3811,1 52383U 22045BE  24007.58831622  .00000692  00000-0  61549-4 0  9998,2 52383  53.2175 135.0256 0001630 111.5184 248.5982 15.08835810 96483,6917.893,95.438,540.886,538.631,0.0
52383.0,STARLINK-3811,PAYLOAD,2024-01-07 15:42:33,15.08837363,0.000136,53.2171,134.7322,99.1638,260.9508,9.6234e-05,1.244e-05,0.0,0 STARLINK-3811,1 52383U 22045BE  24007.65455539  .00001244  00000-0  96234-4 0  9998,2 52383  53.2171 134.7322 0001360  99.1638 260.9508 15.08837363 96492,6917.888,95.438,540.694,538.813,0.0
52383.0,STARLINK-3811,PAYLOAD,2024-01-08 13:57:57,15.08846485,0.0001384,53.2169,130.5677,99.7923,260.3225,7.8459e-05,9.61e-06,0.0,0 STARLINK-3811,1 52383U 22045BE  24008.58191065  .00000961  00000-0  78459-4 0  9996,2 52383  53.2169 130.5677 0001384  99.7923 260.3225 15.08846485 96636,6917.861,95.437,540.683,538.768,0.0
52383.0,STARLINK-3811,PAYLOAD,2024-01-08 15:33:20,15.0884853,0.0001342,53.2171,130.2709,90.8134,269.3011,9.673e-05,1.252e-05,0.0,0 STARLINK-3811,1 52383U 22045BE  24008.64814946  .00001252  00000-0  96730-4 0  9999,2 52383  53.2171 130.2709 0001342  90.8134 269.3011 15.08848530 96648,6917.854,95.437,540.648,538.791,0.0
52383.0,STARLINK-3811,PAYLOAD,2024-01-09 12:13:21,15.08839499,0.0001613,53.2177,126.4103,72.3512,287.7656,5.4306e-05,5.76e-06,0.0,0 STARLINK-3811,1 52383U 22045BE  24009.50927828  .00000576  00000-0  54306-4 0  9990,2 52383  53.2177 126.4103 0001613  72.3512 287.7656 15.08839499 96772,6917.882,95.438,540.863,538.631,0.0
52383.0,STARLINK-3811,PAYLOAD,2024-01-09 13:48:44,15.08840955,0.000154,53.2178,126.113,65.9064,294.2089,5.3601e-05,5.65e-06,0.0,0 STARLINK-3811,1 52383U 22045BE  24009.57551752  .00000565  00000-0  53601-4 0  9991,2 52383  53.2178 126.1130 0001540  65.9064 294.2089 15.08840955 96782,6917.877,95.437,540.808,538.677,0.0
52383.0,STARLINK-3811,PAYLOAD,2024-01-09 15:24:07,15.08846836,0.0001267,53.2173,125.8129,71.8774,288.2356,9.7697e-05,1.268e-05,0.0,0 STARLINK-3811,1 52383U 22045BE  24009.64175124  .00001268  00000-0  97697-4 0  9998,2 52383  53.2173 125.8129 0001267  71.8774 288.2356 15.08846836 96796,6917.859,95.437,540.601,538.848,0.0
52383.0,STARLINK-3811,PAYLOAD,2024-01-10 07:17:59,15.08849288,0.0001543,53.217,122.8402,78.0633,282.0532,-0.00010398,-1.943e-05,0.0,0 STARLINK-3811,1 52383U 22045BE  24010.30415707 -.00001943  00000-0 -10398-3 0  9991,2 52383  53.2170 122.8402 0001543  78.0633 282.0532 15.08849288 96897,6917.852,95.437,540.784,538.65,0.0
52383.0,STARLINK-3811,PAYLOAD,2024-01-10 16:50:17,15.08853486,0.0001414,53.2171,121.0537,78.9789,281.1363,6.3413e-05,7.22e-06,0.0,0 STARLINK-3811,1 52383U 22045BE  24010.70158643  .00000722  00000-0  63413-4 0  9997,2 52383  53.2171 121.0537 0001414  78.9789 281.1363 15.08853486 96950,6917.839,95.437,540.682,538.726,0.0
52383.0,STARLINK-3811,PAYLOAD,2024-01-11 11:54:55,15.08847003,0.000168,53.2171,117.4848,110.9724,249.1448,3.1747e-05,2.17e-06,0.0,0 STARLINK-3811,1 52383U 22045BE  24011.49646995  .00000217  00000-0  31747-4 0  9990,2 52383  53.2171 117.4848 0001680 110.9724 249.1448 15.08847003 97075,6917.859,95.437,540.886,538.562,0.0
52383.0,STARLINK-3811,PAYLOAD,2024-01-11 13:30:18,15.08848307,0.0001512,53.2174,117.189,87.8428,272.2737,6.0006e-05,6.67e-06,0.0,0 STARLINK-3811,1 52383U 22045BE  24011.56271005  .00000667  00000-0  60006-4 0  9993,2 52383  53.2174 117.1890 0001512  87.8428 272.2737 15.08848307 97086,6917.855,95.437,540.766,538.674,0.0
52383.0,STARLINK-3811,PAYLOAD,2024-01-12 11:45:42,15.08838097,0.0001621,53.218,113.0283,96.4813,263.6364,2.5659e-05,1.2e-06,0.0,0 STARLINK-3811,1 52383U 22045BE  24012.49007828  .00000120  00000-0  25659-4 0  9995,2 52383  53.2180 113.0283 0001621  96.4813 263.6364 15.08838097 97220,6917.886,95.438,540.873,538.63,0.0
52383.0,STARLINK-3811,PAYLOAD,2024-01-12 13:21:05,15.08838491,0.0001521,53.2179,112.7315,91.9258,268.1908,3.6546e-05,2.94e-06,0.0,0 STARLINK-3811,1 52383U 22045BE  24012.55631789  .00000294  00000-0  36546-4 0  9990,2 52383  53.2179 112.7315 0001521  91.9258 268.1908 15.08838491 97235,6917.885,95.438,540.802,538.698,0.0
52383.0,STARLINK-3811,PAYLOAD,2024-01-13 13:11:52,15.08847053,0.0001836,53.218,108.2691,101.2511,258.8687,-8.6265e-06,-4.25e-06,0.0,0 STARLINK-3811,1 52383U 22045BE  24013.54991569 -.00000425  00000-0 -86265-5 0  9997,2 52383  53.2180 108.2691 0001836 101.2511 258.8687 15.08847053 97380,6917.859,95.437,540.994,538.454,0.0
52383.0,STARLINK-3811,PAYLOAD,2024-01-14 11:27:16,15.08839804,0.0001582,53.2188,104.1073,96.9548,263.1624,0.00012182,1.651e-05,0.0,0 STARLINK-3811,1 52383U 22045BE  24014.47727988  .00001651  00000-0  12182-3 0  9997,2 52383  53.2188 104.1073 0001582  96.9548 263.1624 15.08839804 97526,6917.881,95.438,540.84,538.652,0.0
52383.0,STARLINK-3811,PAYLOAD,2024-01-15 12:53:26,15.08849089,0.0001457,53.2182,99.3512,86.5747,273.5411,0.00015899,2.244e-05,0.0,0 STARLINK-3811,1 52383U 22045BE  24015.53711502  .00002244  00000-0  15899-3 0  9997,2 52383  53.2182  99.3512 0001457  86.5747 273.5411 15.08849089 97682,6917.853,95.437,540.726,538.71,0.0
52383.0,STARLINK-3811,PAYLOAD,2024-01-16 11:08:51,15.08836432,0.0001557,53.2186,95.1865,83.236,276.8809,7.0552e-06,-1.76e-06,0.0,0 STARLINK-3811,1 52383U 22045BE  24016.46448897 -.00000176  00000-0  70552-5 0  9996,2 52383  53.2186  95.1865 0001557  83.2360 276.8809 15.08836432 97828,6917.891,95.438,540.833,538.679,0.0
52383.0,STARLINK-3811,PAYLOAD,2024-01-16 14:19:37,15.08838117,0.0001497,53.2181,94.5884,83.1361,276.9801,6.1481e-06,-1.9e-06,0.0,0 STARLINK-3811,1 52383U 22045BE  24016.59696711 -.00000190  00000-0  61481-5 0  9997,2 52383  53.2181  94.5884 0001497  83.1361 276.9801 15.08838117 97847,6917.886,95.438,540.787,538.716,0.0
52383.0,STARLINK-3811,PAYLOAD,2024-01-17 10:59:38,15.0884521,0.0001578,53.2178,90.7227,77.8227,282.2942,-1.3781e-05,-5.07e-06,0.0,0 STARLINK-3811,1 52383U 22045BE  24017.45808599 -.00000507  00000-0 -13781-4 0  9994,2 52383  53.2178  90.7227 0001578  77.8227 282.2942 15.08845210 97975,6917.864,95.437,540.821,538.638,0.0
52383.0,STARLINK-3811,PAYLOAD,2024-01-18 10:50:25,15.08844866,0.0001712,53.2173,86.2641,70.5036,289.6141,0.00016835,2.393e-05,0.0,0 STARLINK-3811,1 52383U 22045BE  24018.45168346  .00002393  00000-0  16835-3 0  9999,2 52383  53.2173  86.2641 0001712  70.5036 289.6141 15.08844866 98124,6917.866,95.437,540.915,538.546,0.0
